{
    "links": {
        "self": "http://www.neowsapp.com/rest/v1/neo/3726809?api_key=iIulBulltgU6a56xZRHN4H3l9WmuAYTsLGpBGhQ2"
    },
    "id": "3726809",
    "neo_reference_id": "3726809",
    "name": "(2015 RP2)",
    "designation": "2015 RP2",
    "nasa_jpl_url": "http://ssd.jpl.nasa.gov/sbdb.cgi?sstr=3726809",
    "absolute_magnitude_h": 24.4,
    "estimated_diameter": {
        "kilometers": {
            "estimated_diameter_min": 0.0350392641,
            "estimated_diameter_max": 0.0783501764
        },
        "meters": {
            "estimated_diameter_min": 35.0392641108,
            "estimated_diameter_max": 78.3501764334
        },
        "miles": {
            "estimated_diameter_min": 0.0217723826,
            "estimated_diameter_max": 0.0486845275
        },
        "feet": {
            "estimated_diameter_min": 114.9582192654,
            "estimated_diameter_max": 257.0543928497
        }
    },
    "is_potentially_hazardous_asteroid": false,
    "close_approach_data": [
        {
            "close_approach_date": "2012-07-20",
            "close_approach_date_full": "2012-Jul-20 22:21",
            "epoch_date_close_approach": 1342822860000,
            "relative_velocity": {
                "kilometers_per_second": "11.0070151005",
                "kilometers_per_hour": "39625.25436184",
                "miles_per_hour": "24621.5920783333"
            },
            "miss_distance": {
                "astronomical": "0.2340252017",
                "lunar": "91.0358034613",
                "kilometers": "35009671.700640379",
                "miles": "21754001.2483360702"
            },
            "orbiting_body": "Earth"
        },
        {
            "close_approach_date": "2015-09-01",
            "close_approach_date_full": "2015-Sep-01 23:18",
            "epoch_date_close_approach": 1441149480000,
            "relative_velocity": {
                "kilometers_per_second": "7.6915229273",
                "kilometers_per_hour": "27689.4825381975",
                "miles_per_hour": "17205.1676360261"
            },
            "miss_distance": {
                "astronomical": "0.0930489111",
                "lunar": "36.1960264179",
                "kilometers": "13919918.906379357",
                "miles": "8649436.5287228466"
            },
            "orbiting_body": "Earth"
        },
        {
            "close_approach_date": "2018-09-27",
            "close_approach_date_full": "2018-Sep-27 08:59",
            "epoch_date_close_approach": 1538038740000,
            "relative_velocity": {
                "kilometers_per_second": "16.176197207",
                "kilometers_per_hour": "58234.3099452468",
                "miles_per_hour": "36184.5355323674"
            },
            "miss_distance": {
                "astronomical": "0.3855818595",
                "lunar": "149.9913433455",
                "kilometers": "57682224.891839265",
                "miles": "35842072.528801257"
            },
            "orbiting_body": "Earth"
        }
    ],
    "orbital_data": {
        "orbit_id": "8",
        "orbit_determination_date": "2017-04-06 08:32:11",
        "first_observation_date": "2015-09-05",
        "last_observation_date": "2015-10-11",
        "data_arc_in_days": 36,
        "observations_used": 21,
        "orbit_uncertainty": "6",
        "minimum_orbit_intersection": ".0717866",
        "jupiter_tisserand_invariant": "3.576",
        "epoch_osculation": "2459000.5",
        "eccentricity": ".4868067273709235",
        "semi_major_axis": "2.104039841574692",
        "inclination": "6.902204071261768",
        "ascending_node_longitude": "157.621938590209",
        "orbital_period": "1114.75483773764",
        "perihelion_distance": "1.07977909203968",
        "perihelion_argument": "168.6459319755287",
        "aphelion_distance": "3.128300591109704",
        "perihelion_time": "2459487.564461268277",
        "mean_anomaly": "202.7069341879393",
        "mean_motion": ".3229409622752648",
        "equinox": "J2000",
        "orbit_class": {
            "orbit_class_type": "AMO",
            "orbit_class_description": "Near-Earth asteroid orbits similar to that of 1221 Amor",
            "orbit_class_range": "1.017 AU < q (perihelion) < 1.3 AU"
        }
    },
    "is_sentry_object": false
}